[{"OBJECT_NAME":"GEESAT-5 02","OBJECT_ID":"2025-201B","EPOCH":"2026-03-09T15:59:08.333088","MEAN_MOTION":14.83780369,"ECCENTRICITY":0.00086476,"INCLINATION":49.9848,"RA_OF_ASC_NODE":140.989,"ARG_OF_PERICENTER":301.1325,"MEAN_ANOMALY":58.8764,"EPHEMERIS_TYPE":0,"CLASSIFICATION_TYPE":"U","NORAD_CAT_ID":65551,"ELEMENT_SET_NO":999,"REV_AT_EPOCH":2701,"BSTAR":0.00035135822,"MEAN_MOTION_DOT":2.715e-5,"MEAN_MOTION_DDOT":0},{"OBJECT_NAME":"SL-14 R\/B","OBJECT_ID":"1987-003B","EPOCH":"2026-03-09T23:05:47.136768","MEAN_MOTION":14.85629429,"ECCENTRICITY":0.00190097,"INCLINATION":82.5259,"RA_OF_ASC_NODE":280.8039,"ARG_OF_PERICENTER":139.1629,"MEAN_ANOMALY":221.1016,"EPHEMERIS_TYPE":0,"CLASSIFICATION_TYPE":"U","NORAD_CAT_ID":17296,"ELEMENT_SET_NO":999,"REV_AT_EPOCH":9474,"BSTAR":5.8437645e-5,"MEAN_MOTION_DOT":5.32e-6,"MEAN_MOTION_DDOT":0}]
